STARLINK-4652           
1 53736U 22107AN  26162.37127299 -.00000194  00000+0  59128-5 0  9997
2 53736  53.1594 193.6975 0001206  84.8272 275.2857 15.08835339208723
STARLINK-4662           
1 53738U 22107AQ  26162.39975054 -.00000613  00000+0 -20461-4 0  9995
2 53738  53.1591 203.1535 0001250  85.7997 274.3137 15.08820939208590
STARLINK-4607           
1 53740U 22107AS  26162.34455571  .00000180  00000+0  29393-4 0  9990
2 53740  53.1596 203.5182 0001078  84.4524 275.6591 15.08826958208731
STARLINK-4637           
1 53742U 22107AU  26162.74568156  .00000256  00000+0  34211-4 0  9999
2 53742  53.1592 201.7546 0001280  87.4517 272.6621 15.08830415208793
STARLINK-4645           
1 53743U 22107AV  26162.42922264 -.00000298  00000+0 -64437-6 0  9992
2 53743  53.1600 203.3347 0001233  82.6010 277.5122 15.08830915208744
STARLINK-4670           
1 53744U 22107AW  26162.38500073 -.00000168  00000+0  75173-5 0  9991
2 53744  53.1611 203.0679 0001243  90.3830 269.7304 15.08834080208741
STARLINK-4656           
1 53745U 22107AX  26162.43290550 -.00000194  00000+0  58945-5 0  9991
2 53745  53.1606 203.3569 0001079  94.8903 265.2211 15.08828756208745
STARLINK-4589           
1 53746U 22107AY  26162.42553237 -.00000675  00000+0 -24349-4 0  9990
2 53746  53.1596 203.3108 0001092  83.6758 276.4358 15.08837228208742
STARLINK-4612           
1 53750U 22107BC  26162.37404830 -.00001191  00000+0 -56769-4 0  9998
2 53750  53.1628 203.7003 0001457  87.9701 272.1457 15.08820573208749
SHERPA-LTC2             
1 53754U 22107BG  26162.54197662  .00006581  00000+0  33449-3 0  9998
2 53754  53.2356 244.2272 0394453 210.2113 147.5582 14.69647223201718
CENTISPACE-1 S3         
1 53757U 22108A   26162.66724517  .00000416  00000+0  12174-3 0  9993
2 53757  53.5332  78.0842 0009018 339.6873  20.3742 14.61245724200721
CENTISPACE-1 S4         
1 53758U 22108B   26162.79084080  .00000550  00000+0  14663-3 0  9996
2 53758  53.5307  75.1166 0008260 327.5761  32.4706 14.61924997200776
YAOGAN-35 05A           
1 53760U 22109A   26162.88062447  .00005795  00000+0  24105-3 0  9991
2 53760  35.0078  12.2825 0004653 275.7223  84.2962 15.23112502209804
YAOGAN-35 05B           
1 53761U 22109B   26162.83548606  .00026079  00000+0  66382-3 0  9994
2 53761  34.9783 343.7212 0003629 121.9544 238.1529 15.38618259210041
YAOGAN-35 05C           
1 53763U 22109D   26162.86059184  .00007699  00000+0  31657-3 0  9991
2 53763  34.9916  30.5205 0003514 240.2833 119.7532 15.23439160209562
EUTELSAT KONNECT VHTS   
1 53765U 22110A   26160.62755586  .00000034  00000+0  00000+0 0  9996
2 53765   0.0647 103.4177 0002603 320.1706  63.0435  1.00269352  6766
STARLINK-4718           
1 53773U 22111A   26162.46415919  .00000564  00000+0  53530-4 0  9992
2 53773  53.1608 223.0115 0001046  89.1177 270.9935 15.08830134208006
STARLINK-4719           
1 53774U 22111B   26162.46047237 -.00000226  00000+0  38973-5 0  9998
2 53774  53.1605 222.9892 0001082  94.3520 265.7595 15.08831753207869
STARLINK-4722           
1 53775U 22111C   26162.42463471 -.00000210  00000+0  49260-5 0  9991
2 53775  53.1601 213.5018 0001125  89.1207 270.9913 15.08830285207843
STARLINK-4664           
1 53777U 22111E   26162.41722830  .00005601  00000+0  36936-3 0  9991
2 53777  53.1611 213.4569 0001269  85.0539 275.0598 15.08873857207845
STARLINK-4709           
1 53778U 22111F   26162.37811569 -.00000187  00000+0  63233-5 0  9992
2 53778  53.1613 218.2025 0001213  84.9433 275.1697 15.08829142207779
STARLINK-4706           
1 53779U 22111G   26162.41357815  .00000349  00000+0  40025-4 0  9999
2 53779  53.1613 213.4332 0001046  82.5602 277.5508 15.08834215207846
STARLINK-4678           
1 53780U 22111H   26162.42094815  .00000065  00000+0  22186-4 0  9993
2 53780  53.1604 213.4770 0001247  92.6129 267.5005 15.08834001207847
STARLINK-4462           
1 53781U 22111J   26162.40252441  .00000684  00000+0  61092-4 0  9999
2 53781  53.1611 213.3639 0001207  77.5468 282.5659 15.08837261207846
STARLINK-4679           
1 53782U 22111K   26162.83335647  .00646752  19425-3  13543-2 0  9990
2 53782  53.2127 183.9947 0001060  67.5578   5.2184 15.98433812  6003
STARLINK-4536           
1 53783U 22111L   26162.39516022 -.00000372  00000+0 -52749-5 0  9993
2 53783  53.1606 213.3175 0001366  86.5766 273.5382 15.08843459207843
STARLINK-4687           
1 53784U 22111M   26162.40621249 -.00000051  00000+0  14866-4 0  9994
2 53784  53.1596 213.3875 0001218  86.2285 273.8846 15.08833663207842
STARLINK-4743           
1 53787U 22111Q   26162.45402958  .00000111  00000+0  25069-4 0  9999
2 53787  53.1603 212.9739 0000953  82.7768 277.3332 15.08832767207854
STARLINK-4666           
1 53789U 22111S   26162.44297303  .00000539  00000+0  51953-4 0  9991
2 53789  53.1600 212.9068 0001134  92.3117 267.8005 15.08846577207849
STARLINK-4734           
1 53790U 22111T   26162.45771362  .00000140  00000+0  26920-4 0  9990
2 53790  53.1609 212.9972 0001353  90.4934 269.6213 15.08834488207853
STARLINK-4739           
1 53792U 22111V   26162.43664616  .00000335  00000+0  39133-4 0  9999
2 53792  53.1596 213.5623 0001199  87.7233 272.3896 15.08831237207834
STARLINK-4728           
1 53793U 22111W   26162.45034477  .00000208  00000+0  31138-4 0  9994
2 53793  53.1598 212.9492 0001125  90.7930 269.3190 15.08831906207848
STARLINK-4730           
1 53794U 22111X   26162.45498911 -.00000636  00000+0 -21905-4 0  9990
2 53794  53.1602 212.9771 0001178  84.4572 275.6554 15.08834808207843
STARLINK-4742           
1 53795U 22111Y   26162.43929083 -.00000151  00000+0  86234-5 0  9996
2 53795  53.1597 212.8831 0001188  86.5177 273.5951 15.08829938207844
STARLINK-4723           
1 53797U 22111AA  26162.42823544 -.00000399  00000+0 -69775-5 0  9998
2 53797  53.1603 212.8153 0001270  86.3747 273.7390 15.08831050207830
STARLINK-4712           
1 53798U 22111AB  26162.43191957 -.00000016  00000+0  17092-4 0  9995
2 53798  53.1608 212.8364 0001381  78.1675 281.9471 15.08830270207836
STARLINK-4710           
1 53799U 22111AC  26162.40809356  .00000443  00000+0  45934-4 0  9991
2 53799  53.1595 203.4117 0001239  83.3835 276.7297 15.08832384207962
STARLINK-4720           
1 53800U 22111AD  26162.83335647  .00125305  00000+0  14918-2 0  9999
2 53800  53.2058 145.6699 0004243  71.4086  68.9327 15.60224735  5937
STARLINK-4715           
1 53801U 22111AE  26162.37765802  .00000228  00000+0  32428-4 0  9993
2 53801  53.1609 203.2265 0001200  86.7038 273.4091 15.08833263207967
STARLINK-4726           
1 53802U 22111AF  26162.38870698 -.00002136  00000+0 -11614-3 0  9990
2 53802  53.1612 203.2943 0001234  85.8999 274.2134 15.08836973207966
STARLINK-4727           
1 53803U 22111AG  26162.33675076 -.00000533  00000+0 -15364-4 0  9995
2 53803  53.1611 188.7063 0001608  40.8611 319.2501 15.08836952208161
STARLINK-4729           
1 53804U 22111AH  26162.38091611 -.00000053  00000+0  14755-4 0  9997
2 53804  53.1600 198.2473 0001291  87.4381 272.6758 15.08832794208032
STARLINK-4763           
1 53805U 22111AJ  26162.34507808  .00000441  00000+0  45834-4 0  9996
2 53805  53.1614 188.7516 0001295  94.2129 265.9010 15.08834002208164
STARLINK-4768           
1 53806U 22111AK  26162.38456735 -.00000091  00000+0  12360-4 0  9993
2 53806  53.1594 188.2917 0001232  96.4729 263.6403 15.08829145208177
BLUEWALKER-3            
1 53807U 22111AL  26162.00731443  .00006337  00000+0  17614-3 0  9999
2 53807  53.2295  62.9824 0006787 143.3962 216.7508 15.38193785209255
ZHONGXING-1E            
1 53813U 22112A   26162.49675206 -.00000132  00000+0  00000+0 0  9999
2 53813   0.0524 102.4235 0000241 193.9869 223.6538  1.00269691 13795
STRIX-1                 
1 53815U 22113A   26162.85506771  .00022282  00000+0  56762-3 0  9991
2 53815  97.4505 224.7849 0002912 233.2270 126.8708 15.39565719206622
STARLINK-4738           
1 53819U 22114B   26162.48807272 -.00000239  00000+0  30772-5 0  9999
2 53819  53.1596 242.8539 0001027  82.0477 278.0631 15.08833718206995
STARLINK-4758           
1 53820U 22114C   26162.52123310  .00000111  00000+0  25055-4 0  9995
2 53820  53.1602 243.0516 0000960  88.0954 272.0147 15.08832651206995
STARLINK-4748           
1 53823U 22114F   26162.36158500  .00000125  00000+0  25946-4 0  9993
2 53823  53.1612 198.5339 0001293  87.7348 272.3791 15.08834603207605
STARLINK-4757           
1 53824U 22114G   26162.44385525 -.00002229  00000+0 -12195-3 0  9992
2 53824  53.1595 242.5814 0001467  80.6474 279.4684 15.08842318206902
STARLINK-4751           
1 53825U 22114H   26162.51386468  .00000355  00000+0  40426-4 0  9993
2 53825  53.1603 243.0053 0001230  87.2549 272.8584 15.08830827206995
STARLINK-4756           
1 53826U 22114J   26162.49543912 -.00000229  00000+0  37200-5 0  9998
2 53826  53.1613 242.8932 0001146  91.8251 268.2871 15.08833413206999
STARLINK-4764           
1 53827U 22114K   26162.50649344 -.00000137  00000+0  94772-5 0  9992
2 53827  53.1601 242.9605 0001404  87.8842 272.2310 15.08834764206996
STARLINK-4760           
1 53828U 22114L   26162.49175269  .00000004  00000+0  18358-4 0  9998
2 53828  53.1609 242.8706 0001315  86.7611 273.3531 15.08836809206998
STARLINK-4759           
1 53829U 22114M   26162.70152925 -.00000413  00000+0 -78401-5 0  9999
2 53829  53.1598 242.0449 0001172  86.7775 273.3351 15.08833567207027
STARLINK-4761           
1 53830U 22114N   26162.48438565  .00000300  00000+0  36935-4 0  9991
2 53830  53.1608 242.8249 0001244  88.0715 272.0418 15.08834712206994
STARLINK-4649           
1 53831U 22114P   26162.49912367  .00000530  00000+0  51374-4 0  9999
2 53831  53.1608 242.9162 0001206  80.8694 279.2434 15.08831555206993
STARLINK-4747           
1 53832U 22114Q   26162.54325490  .00000764  00000+0  66117-4 0  9991
2 53832  53.1593 242.4818 0001205  87.3387 272.7742 15.08824624207002
